CUTE-1 (CO-55)          
1 27844U 03031E   24241.28591414  .00001014  00000+0  46596-3 0  9997
2 27844  98.6794 247.3207 0008551 299.3649  60.6675 14.23410691 98048
CUBESAT XI-IV (CO-57)   
1 27848U 03031J   24240.96756813  .00000792  00000+0  37239-3 0  9997
2 27848  98.6824 247.2102 0008708 318.6727  41.3791 14.22829865 97742
CUBESAT XI-V            
1 28895U 05043F   24241.35603580  .00005528  00000+0  96431-3 0  9992
2 28895  98.2106  17.3472 0016245 127.9013 232.3664 14.68304349  5042
CUTE-1.7+APD II (CO-65) 
1 32785U 08021C   24241.39240819  .00013484  00000+0  11435-2 0  9990
2 32785  97.7613 206.1930 0013824  87.5729 272.7076 14.97991715886283
AAUSAT-II               
1 32788U 08021F   24241.21657919  .00051551  00000+0  22261-2 0  9993
2 32788  97.5989 221.9010 0000627 240.6943 119.4230 15.22318936889268
CANX-2                  
1 32790U 08021H   24241.39880271  .00010395  00000+0  92158-3 0  9998
2 32790  97.7738 204.8871 0014367  94.5058 265.7804 14.96321952886080
SEEDS II (CO-66)        
1 32791U 08021J   24241.41577589  .00023146  00000+0  15877-2 0  9997
2 32791  97.6954 212.2981 0007515  75.9844 284.2218 15.05989832887385
SWISSCUBE               
1 35932U 09051B   24241.50324974  .00003734  00000+0  79672-3 0  9994
2 35932  98.4599 126.2406 0008658  93.7699 266.4490 14.59475774793103
BEESAT-1                
1 35933U 09051C   24241.17956495  .00002840  00000+0  61292-3 0  9993
2 35933  98.4527 126.7238 0006929 104.4672 255.7296 14.59153203793120
ITUPSAT1                
1 35935U 09051E   24241.45218885  .00002653  00000+0  58646-3 0  9991
2 35935  98.4625 126.7465 0009113 110.8837 249.3337 14.58081309792798
TISAT 1                 
1 36799U 10035E   24240.96092299  .00016983  00000+0  12155-2 0  9993
2 36799  98.0794 133.5641 0004477  26.1581 333.9869 15.04492463767842
AEROCUBE 4.5A           
1 38767U 12048K   24240.83442562  .00020910  00000+0  10165-2 0  9998
2 38767  64.6586  83.3834 0109925 353.7286   6.2451 15.13221000271291
AEROCUBE 4.5B           
1 38768U 12048L   24241.55919736  .00079284  00000+0  22649-2 0  9999
2 38768  64.6544   0.3380 0087793 340.2313  19.5421 15.31721604272482
STRAND-1                
1 39090U 13009E   24241.52604210  .00001147  00000+0  40748-3 0  9995
2 39090  98.3824  67.8293 0009646  42.3166 317.8763 14.36220401602645
BRITE-AUSTRIA           
1 39091U 13009F   24241.44692597  .00000687  00000+0  25149-3 0  9998
2 39091  98.3870  67.0272 0011226  48.5455 311.6694 14.35905455602634
NEE-01 PEGASO           
1 39151U 13018B   24241.32201665  .00008146  00000+0  92159-3 0  9997
2 39151  98.0422 359.2032 0015059 161.5794 198.5969 14.86635523612686
ESTCUBE 1               
1 39161U 13021C   24241.10016146  .00004610  00000+0  66045-3 0  9993
2 39161  97.8231 305.3786 0008658   6.4317 353.7003 14.77005418607700
POPACS 1                
1 39268U 13055D   24241.21931718  .00057388  00000+0  93286-3 0  9998
2 39268  80.9779  68.1548 0382686 219.9335 137.3163 14.98985291571303
POPACS 2                
1 39269U 13055E   24240.50069079  .00023726  00000+0  53125-3 0  9999
2 39269  81.0031 161.8016 0540911 104.8991 261.2738 14.59587462567210
POPACS 3                
1 39270U 13055F   24240.64422116  .00010037  00000+0  27458-3 0  9992
2 39270  81.0077 214.7103 0618437 253.0195 100.2360 14.39066191543237
ZACUBE-1 (TSHEPISOSAT)  
1 39417U 13066B   24241.38970045  .00011326  00000+0  11397-2 0  9994
2 39417  97.7385 195.8098 0047191 282.0086  77.5845 14.90524767582335
WNISAT-1                
1 39423U 13066H   24241.41424090  .00003752  00000+0  71604-3 0  9991
2 39423  97.6705  69.8982 0169954 142.1100 219.2204 14.55605811570943
TRITON-1                
1 39427U 13066M   24241.59249419  .00007521  00000+0  10377-2 0  9991
2 39427  97.8362 157.2730 0100414 207.9182 151.6619 14.74976084576889
DELFI-N3XT              
1 39428U 13066N   24241.52694274  .00015952  00000+0  19574-2 0  9993
2 39428  97.8325 158.0135 0097015 212.7588 146.7586 14.79834731576967
GOMX-1                  
1 39430U 13066Q   24241.54484395  .00007152  00000+0  11696-2 0  9999
2 39430  97.7218 111.5358 0139408  23.3458 337.3994 14.64800627573639
CUBEBUG-2 (LO-74)       
1 39440U 13066AA  24241.60350398  .00014260  00000+0  16278-2 0  9991
2 39440  97.8146 183.7610 0069926  38.9296 321.6923 14.84403174579072
NEE-02 KRYSAOR          
1 39441U 13066AB  24241.55788468  .00008473  00000+0  10524-2 0  9996
2 39441  97.8233 179.2991 0075131  61.3815 299.4928 14.80819744578643
FUNCUBE-1 (AO-73)       
1 39444U 13066AE  24241.40308597  .00015235  00000+0  14135-2 0  9990
2 39444  97.7233 199.1485 0044273 259.9418  99.6805 14.93765184580886
UWE-3                   
1 39446U 13066AG  24241.61013448  .00015651  00000+0  16864-2 0  9996
2 39446  97.7843 189.8614 0058246 343.6176  16.3156 14.87264651579465
BRITE-CA1 (TORONTO)     
1 40020U 14033L   24241.32908175  .00003909  00000+0  63009-3 0  9996
2 40020  97.8865  15.9656 0081828 221.1713 138.3302 14.69797971545461
DUCHIFAT-1              
1 40021U 14033M   24241.52901060  .00035457  00000+0  21660-2 0  9994
2 40021  98.0948 229.2311 0011605 202.3215 157.7509 15.10135338555037
NANOSATC-BR1            
1 40024U 14033Q   24241.18055674  .00021050  00000+0  14632-2 0  9995
2 40024  98.0694 216.3969 0003017 296.3112  63.7803 15.05540690554072
QB50P1                  
1 40025U 14033R   24241.17332706  .00016266  00000+0  12618-2 0  9994
2 40025  98.0503 204.3869 0011199 299.5404  60.4702 15.01412767553673
QB50P2                  
1 40032U 14033Y   24241.60634336  .00018048  00000+0  14527-2 0  9995
2 40032  98.0076 196.0505 0007212 257.2365 102.8052 15.00001037553524
PERSEUS-M2              
1 40037U 14033AD  24241.38482534  .00004768  00000+0  48688-3 0  9996
2 40037  97.9258 172.4541 0011817 324.0258  36.0164 14.91043358552585
PERSEUS-M1              
1 40039U 14033AF  24241.35312867  .00006057  00000+0  61975-3 0  9993
2 40039  97.9048 168.2690 0011505 323.7961  36.2477 14.90851708552431
POLYITAN-1              
1 40042U 14033AJ  24241.42864199  .00023589  00000+0  16673-2 0  9998
2 40042  98.0753 208.8042 0009848 241.1334 118.8903 15.04855784553690
TIGRISAT                
1 40043U 14033AK  24241.38302083  .00006531  00000+0  85418-3 0  9995
2 40043  97.7031  41.0516 0055672  68.8624 291.8527 14.79655241548135
AEROCUBE 6A             
1 40045U 14033AM  24241.40317189  .00013503  00000+0  15546-2 0  9994
2 40045  97.6749  52.1097 0049619  45.1443 315.3786 14.84947815548507
AEROCUBE 6B             
1 40046U 14033AN  24241.39574589  .00013881  00000+0  15651-2 0  9998
2 40046  97.6716  50.8732 0048183  40.2285 320.2481 14.85844939548565
CANX-4                  
1 40055U 14034C   24241.55039562  .00003673  00000+0  51051-3 0  9997
2 40055  98.3911  79.3177 0012617 324.6142  35.4229 14.78472258547245
CANX-5                  
1 40056U 14034D   24241.28438849  .00003302  00000+0  45965-3 0  9995
2 40056  98.3912  79.0475 0012633 325.6956  34.3436 14.78479073538012
UKUBE-1                 
1 40074U 14037F   24241.57440236  .00021363  00000+0  19261-2 0  9999
2 40074  98.3419 176.0282 0004583 156.3143 203.8288 14.95569216549591
BRITE-PL2 (HEWELIUSZ)   
1 40119U 14049B   24241.24872080  .00005724  00000+0  60474-3 0  9998
2 40119  97.8845 340.6256 0016626 125.1392 235.1386 14.89526583543302
AEROCUBE 5C             
1 40965U 15058B   24241.07473733  .00006807  00000+0  60556-3 0  9995
2 40965  64.7698 140.8135 0192109 286.3733  71.6331 14.83742323267702
AEROCUBE 7              
1 40966U 15058C   24241.06106185  .00008433  00000+0  71722-3 0  9993
2 40966  64.7672 133.9249 0186629 285.9472  72.1145 14.85856872267783
FOX-1A (AO-85)          
1 40967U 15058D   24241.50165027  .00009536  00000+0  85810-3 0  9991
2 40967  64.7776 153.6360 0191045 282.0492  75.9265 14.83154797 15713
SINOD-D 1               
1 40968U 15058E   24240.49608399  .00008534  00000+0  73863-3 0  9995
2 40968  64.7776 148.7782 0185220 281.2944  76.7403 14.85383331 18400
SNAP-3 ALICE            
1 40970U 15058G   24241.35487721  .00024179  00000+0  15506-2 0  9990
2 40970  64.7703  98.8754 0152939 278.6131  79.7683 14.99260035 16597
LMRST-SAT               
1 40971U 15058H   24241.14227496  .00007228  00000+0  65325-3 0  9990
2 40971  64.7768 150.2799 0192294 283.5656  74.4097 14.83077518 15669
SNAP-3 EDDIE            
1 40972U 15058J   24240.94722338  .00019134  00000+0  12165-2 0  9995
2 40972  64.7677  93.4230 0153209 279.6975  78.6865 14.99630463 18630
PROPCUBE 3              
1 40973U 15058K   24240.06695372  .00007551  00000+0  65449-3 0  9990
2 40973  64.7708 140.7244 0188625 285.1941  72.8379 14.85023015 16551
BISONSAT                
1 40974U 15058L   24241.35617171  .00016418  00000+0  11914-2 0  9994
2 40974  64.7673 108.4026 0167956 282.2745  75.9607 14.93362945 16539
SNAP-3 JIMI             
1 40975U 15058M   24239.05630321  .00008629  00000+0  69682-3 0  9992
2 40975  64.7686 130.7866 0179890 284.3942  73.7262 14.88539285 15423
PROPCUBE 1 (FLORA)      
1 40976U 15058N   24241.53021375  .00008836  00000+0  82524-3 0  9992
2 40976  64.7757 164.9132 0190615 284.7186  73.2865 14.81899906 18519
SINOD-D 3               
1 40977U 15058P   24241.14875796  .00009543  00000+0  85418-3 0  9995
2 40977  64.7747 158.6719 0184617 283.9692  74.0948 14.84135992 16709
HORYU-4                 
1 41340U 16012D   24240.30525293  .00020372  00000+0  93982-3 0  9990
2 41340  31.0009 231.3044 0008392 329.0778  30.9368 15.19036741468961
RAVAN                   
1 41849U 16067B   24241.43104134  .00022142  00000+0  11427-2 0  9996
2 41849  98.0678  63.4846 0013015 140.2380 219.9808 15.16275929426922
CELTEE 1                
1 41850U 16067C   24241.39982685  .00012436  00000+0  81390-3 0  9990
2 41850  98.1086  54.6993 0000613  26.0435 334.0822 15.07912792426308
